ONEWEB-0338             
1 49204U 21083U   23305.49085864  .00000045  00000+0  78853-4 0  9993
2 49204  87.9156 105.3165 0001312  74.9112 285.2166 13.20770652110262
ONEWEB-0339             
1 49205U 21083V   23305.58405884  .00000036  00000+0  64888-4 0  9995
2 49205  87.9001 150.9902 0001369  85.4806 274.6479 13.13467369105056
ONEWEB-0340             
1 49206U 21083W   23305.58583426  .00000072  00000+0  14960-3 0  9990
2 49206  87.9176 166.1460 0001636  84.9153 275.2165 13.18684941103637
ONEWEB-0341             
1 49207U 21083X   23305.59426071  .00000025  00000+0  29686-4 0  9994
2 49207  87.9258 166.1295 0000907 103.2864 256.8369 13.18685840103651
ONEWEB-0342             
1 49208U 21083Y   23305.87595043  .00000094  00000+0  19846-3 0  9994
2 49208  87.9148 105.2689 0001468  82.9446 277.1854 13.20770422111583
ONEWEB-0343             
1 49209U 21083Z   23305.59004379  .00000003  00000+0 -23954-4 0  9998
2 49209  87.9245 166.1566 0000547 101.5740 258.5453 13.18685402103707
ONEWEB-0344             
1 49210U 21083AA  23305.54913572  .00000055  00000+0  11562-3 0  9996
2 49210  87.9002 151.0037 0001715  88.6339 271.4987 13.13473853105059
ONEWEB-0345             
1 49211U 21083AB  23305.64330323 -.00003346  00000+0 -91979-2 0  9992
2 49211  87.9002 150.9706 0003327 109.3757 250.7732 13.13495892106378
